ATLAS CENTAUR R/B       
1 06155U 72065B   26013.08294046  .00000914  00000+0  12803-3 0  9992
2 06155  35.0015 271.5866 0034622 262.5684  97.1082 14.77505402833037
SL-8 R/B                
1 08459U 75112B   26012.99412914  .00000187  00000+0  70251-4 0  9996
2 08459  74.0614 121.3704 0016458 229.5184 130.4536 14.38169043623869
SL-3 R/B                
1 10114U 77057B   26013.13643861  .00009620  00000+0  21411-3 0  9995
2 10114  97.5699 182.7102 0008392 119.1273 241.0815 15.43822013659753
SEASAT 1                
1 10967U 78064A   26012.88066398  .00000267  00000+0  11320-3 0  9991
2 10967 108.0157   8.3753 0001165 274.4228  85.6785 14.46101362498441
SL-14 R/B               
1 11267U 79011B   26013.11210234  .00000576  00000+0  54519-4 0  9996
2 11267  82.5254 149.2909 0014785 240.6622 119.3121 14.91820313520496
SL-8 R/B                
1 11574U 79089B   26012.91048272  .00000315  00000+0  10317-3 0  9998
2 11574  74.0673 194.2871 0015392  16.8550 343.3115 14.42305909428061
SL-14 R/B               
1 11672U 80005B   26013.02154477  .00000580  00000+0  56275-4 0  9993
2 11672  82.5146   0.0266 0015585 355.3625   4.7447 14.90838531468198
SL-8 R/B                
1 12139U 81003B   26012.93202190  .00019484  00000+0  51493-3 0  9995
2 12139  82.9382 341.4941 0272309  13.2487 347.5705 15.08407467306264
SL-3 R/B                
1 12465U 81046B   26013.14314211  .00008866  00000+0  21739-3 0  9998
2 12465  81.2326 356.3462 0018468 207.5764 152.4500 15.40387807429879
SL-3 R/B                
1 12904U 81103B   26013.11762693  .00003630  00000+0  16376-3 0  9993
2 12904  81.1595 278.5974 0014199 109.2540 251.0228 15.20667081964784
SL-3 R/B                
1 13068U 82013B   26013.08452166  .00002880  00000+0  12638-3 0  9996
2 13068  81.1727 225.9118 0023069   9.7168 350.4504 15.21392711395892
SL-3 R/B                
1 13154U 82039B   26013.12324625  .00002094  00000+0  12705-3 0  9995
2 13154  81.1681 279.9837 0029836 146.4149 213.8976 15.09740737373252
