CCSDS_OMM_VERS = 2.0
CREATION_DATE  = 
ORIGINATOR     = 

OBJECT_NAME    = ATLAS CENTAUR R/B
OBJECT_ID      = 1972-065B
CENTER_NAME    = EARTH
REF_FRAME      = TEME
TIME_SYSTEM    = UTC
MEAN_ELEMENT_THEORY = SGP/SGP4

EPOCH          = 2026-01-13T01:59:26.055744
MEAN_MOTION    = 14.77505402
ECCENTRICITY   = .0034622
INCLINATION    = 35.0015
RA_OF_ASC_NODE = 271.5866
ARG_OF_PERICENTER = 262.5684
MEAN_ANOMALY   = 97.1082

EPHEMERIS_TYPE = 0
CLASSIFICATION_TYPE = U
NORAD_CAT_ID   = 6155
ELEMENT_SET_NO = 999
REV_AT_EPOCH   = 83303
BSTAR          = .12803E-3
MEAN_MOTION_DOT = .914E-5
MEAN_MOTION_DDOT = 0

CCSDS_OMM_VERS = 2.0
CREATION_DATE  = 
ORIGINATOR     = 

OBJECT_NAME    = SL-8 R/B
OBJECT_ID      = 1975-112B
CENTER_NAME    = EARTH
REF_FRAME      = TEME
TIME_SYSTEM    = UTC
MEAN_ELEMENT_THEORY = SGP/SGP4

EPOCH          = 2026-01-12T23:51:32.757696
MEAN_MOTION    = 14.38169043
ECCENTRICITY   = .0016458
INCLINATION    = 74.0614
RA_OF_ASC_NODE = 121.3704
ARG_OF_PERICENTER = 229.5184
MEAN_ANOMALY   = 130.4536

EPHEMERIS_TYPE = 0
CLASSIFICATION_TYPE = U
NORAD_CAT_ID   = 8459
ELEMENT_SET_NO = 999
REV_AT_EPOCH   = 62386
BSTAR          = .70251E-4
MEAN_MOTION_DOT = .187E-5
MEAN_MOTION_DDOT = 0

CCSDS_OMM_VERS = 2.0
CREATION_DATE  = 
ORIGINATOR     = 

OBJECT_NAME    = SL-3 R/B
OBJECT_ID      = 1977-057B
CENTER_NAME    = EARTH
REF_FRAME      = TEME
TIME_SYSTEM    = UTC
MEAN_ELEMENT_THEORY = SGP/SGP4

EPOCH          = 2026-01-13T03:16:28.295904
MEAN_MOTION    = 15.43822013
ECCENTRICITY   = .0008392
INCLINATION    = 97.5699
RA_OF_ASC_NODE = 182.7102
ARG_OF_PERICENTER = 119.1273
MEAN_ANOMALY   = 241.0815

EPHEMERIS_TYPE = 0
CLASSIFICATION_TYPE = U
NORAD_CAT_ID   = 10114
ELEMENT_SET_NO = 999
REV_AT_EPOCH   = 65975
BSTAR          = .21411E-3
MEAN_MOTION_DOT = .962E-4
MEAN_MOTION_DDOT = 0

CCSDS_OMM_VERS = 2.0
CREATION_DATE  = 
ORIGINATOR     = 

OBJECT_NAME    = SEASAT 1
OBJECT_ID      = 1978-064A
CENTER_NAME    = EARTH
REF_FRAME      = TEME
TIME_SYSTEM    = UTC
MEAN_ELEMENT_THEORY = SGP/SGP4

EPOCH          = 2026-01-12T21:08:09.367872
MEAN_MOTION    = 14.46101362
ECCENTRICITY   = .0001165
INCLINATION    = 108.0157
RA_OF_ASC_NODE = 8.3753
ARG_OF_PERICENTER = 274.4228
MEAN_ANOMALY   = 85.6785

EPHEMERIS_TYPE = 0
CLASSIFICATION_TYPE = U
NORAD_CAT_ID   = 10967
ELEMENT_SET_NO = 999
REV_AT_EPOCH   = 49844
BSTAR          = .1132E-3
MEAN_MOTION_DOT = .267E-5
MEAN_MOTION_DDOT = 0

CCSDS_OMM_VERS = 2.0
CREATION_DATE  = 
ORIGINATOR     = 

OBJECT_NAME    = SL-14 R/B
OBJECT_ID      = 1979-011B
CENTER_NAME    = EARTH
REF_FRAME      = TEME
TIME_SYSTEM    = UTC
MEAN_ELEMENT_THEORY = SGP/SGP4

EPOCH          = 2026-01-13T02:41:25.642176
MEAN_MOTION    = 14.91820313
ECCENTRICITY   = .0014785
INCLINATION    = 82.5254
RA_OF_ASC_NODE = 149.2909
ARG_OF_PERICENTER = 240.6622
MEAN_ANOMALY   = 119.3121

EPHEMERIS_TYPE = 0
CLASSIFICATION_TYPE = U
NORAD_CAT_ID   = 11267
ELEMENT_SET_NO = 999
REV_AT_EPOCH   = 52049
BSTAR          = .54519E-4
MEAN_MOTION_DOT = .576E-5
MEAN_MOTION_DDOT = 0

CCSDS_OMM_VERS = 2.0
CREATION_DATE  = 
ORIGINATOR     = 

OBJECT_NAME    = SL-8 R/B
OBJECT_ID      = 1979-089B
CENTER_NAME    = EARTH
REF_FRAME      = TEME
TIME_SYSTEM    = UTC
MEAN_ELEMENT_THEORY = SGP/SGP4

EPOCH          = 2026-01-12T21:51:05.707008
MEAN_MOTION    = 14.42305909
ECCENTRICITY   = .0015392
INCLINATION    = 74.0673
RA_OF_ASC_NODE = 194.2871
ARG_OF_PERICENTER = 16.8550
MEAN_ANOMALY   = 343.3115

EPHEMERIS_TYPE = 0
CLASSIFICATION_TYPE = U
NORAD_CAT_ID   = 11574
ELEMENT_SET_NO = 999
REV_AT_EPOCH   = 42806
BSTAR          = .10317E-3
MEAN_MOTION_DOT = .315E-5
MEAN_MOTION_DDOT = 0

CCSDS_OMM_VERS = 2.0
CREATION_DATE  = 
ORIGINATOR     = 

OBJECT_NAME    = SL-14 R/B
OBJECT_ID      = 1980-005B
CENTER_NAME    = EARTH
REF_FRAME      = TEME
TIME_SYSTEM    = UTC
MEAN_ELEMENT_THEORY = SGP/SGP4

EPOCH          = 2026-01-13T00:31:01.468128
MEAN_MOTION    = 14.90838531
ECCENTRICITY   = .0015585
INCLINATION    = 82.5146
RA_OF_ASC_NODE = 0.0266
ARG_OF_PERICENTER = 355.3625
MEAN_ANOMALY   = 4.7447

EPHEMERIS_TYPE = 0
CLASSIFICATION_TYPE = U
NORAD_CAT_ID   = 11672
ELEMENT_SET_NO = 999
REV_AT_EPOCH   = 46819
BSTAR          = .56275E-4
MEAN_MOTION_DOT = .58E-5
MEAN_MOTION_DDOT = 0

CCSDS_OMM_VERS = 2.0
CREATION_DATE  = 
ORIGINATOR     = 

OBJECT_NAME    = SL-8 R/B
OBJECT_ID      = 1981-003B
CENTER_NAME    = EARTH
REF_FRAME      = TEME
TIME_SYSTEM    = UTC
MEAN_ELEMENT_THEORY = SGP/SGP4

EPOCH          = 2026-01-12T22:22:06.692160
MEAN_MOTION    = 15.08407467
ECCENTRICITY   = .0272309
INCLINATION    = 82.9382
RA_OF_ASC_NODE = 341.4941
ARG_OF_PERICENTER = 13.2487
MEAN_ANOMALY   = 347.5705

EPHEMERIS_TYPE = 0
CLASSIFICATION_TYPE = U
NORAD_CAT_ID   = 12139
ELEMENT_SET_NO = 999
REV_AT_EPOCH   = 30626
BSTAR          = .51493E-3
MEAN_MOTION_DOT = .19484E-3
MEAN_MOTION_DDOT = 0

CCSDS_OMM_VERS = 2.0
CREATION_DATE  = 
ORIGINATOR     = 

OBJECT_NAME    = SL-3 R/B
OBJECT_ID      = 1981-046B
CENTER_NAME    = EARTH
REF_FRAME      = TEME
TIME_SYSTEM    = UTC
MEAN_ELEMENT_THEORY = SGP/SGP4

EPOCH          = 2026-01-13T03:26:07.478304
MEAN_MOTION    = 15.40387807
ECCENTRICITY   = .0018468
INCLINATION    = 81.2326
RA_OF_ASC_NODE = 356.3462
ARG_OF_PERICENTER = 207.5764
MEAN_ANOMALY   = 152.4500

EPHEMERIS_TYPE = 0
CLASSIFICATION_TYPE = U
NORAD_CAT_ID   = 12465
ELEMENT_SET_NO = 999
REV_AT_EPOCH   = 42987
BSTAR          = .21739E-3
MEAN_MOTION_DOT = .8866E-4
MEAN_MOTION_DDOT = 0

CCSDS_OMM_VERS = 2.0
CREATION_DATE  = 
ORIGINATOR     = 

OBJECT_NAME    = SL-3 R/B
OBJECT_ID      = 1981-103B
CENTER_NAME    = EARTH
REF_FRAME      = TEME
TIME_SYSTEM    = UTC
MEAN_ELEMENT_THEORY = SGP/SGP4

EPOCH          = 2026-01-13T02:49:22.966752
MEAN_MOTION    = 15.20667081
ECCENTRICITY   = .0014199
INCLINATION    = 81.1595
RA_OF_ASC_NODE = 278.5974
ARG_OF_PERICENTER = 109.2540
MEAN_ANOMALY   = 251.0228

EPHEMERIS_TYPE = 0
CLASSIFICATION_TYPE = U
NORAD_CAT_ID   = 12904
ELEMENT_SET_NO = 999
REV_AT_EPOCH   = 96478
BSTAR          = .16376E-3
MEAN_MOTION_DOT = .363E-4
MEAN_MOTION_DDOT = 0

CCSDS_OMM_VERS = 2.0
CREATION_DATE  = 
ORIGINATOR     = 

OBJECT_NAME    = SL-3 R/B
OBJECT_ID      = 1982-013B
CENTER_NAME    = EARTH
REF_FRAME      = TEME
TIME_SYSTEM    = UTC
MEAN_ELEMENT_THEORY = SGP/SGP4

EPOCH          = 2026-01-13T02:01:42.671424
MEAN_MOTION    = 15.21392711
ECCENTRICITY   = .0023069
INCLINATION    = 81.1727
RA_OF_ASC_NODE = 225.9118
ARG_OF_PERICENTER = 9.7168
MEAN_ANOMALY   = 350.4504

EPHEMERIS_TYPE = 0
CLASSIFICATION_TYPE = U
NORAD_CAT_ID   = 13068
ELEMENT_SET_NO = 999
REV_AT_EPOCH   = 39589
BSTAR          = .12638E-3
MEAN_MOTION_DOT = .288E-4
MEAN_MOTION_DDOT = 0

CCSDS_OMM_VERS = 2.0
CREATION_DATE  = 
ORIGINATOR     = 

OBJECT_NAME    = SL-3 R/B
OBJECT_ID      = 1982-039B
CENTER_NAME    = EARTH
REF_FRAME      = TEME
TIME_SYSTEM    = UTC
MEAN_ELEMENT_THEORY = SGP/SGP4

EPOCH          = 2026-01-13T02:57:28.476000
MEAN_MOTION    = 15.09740737
ECCENTRICITY   = .0029836
INCLINATION    = 81.1681
RA_OF_ASC_NODE = 279.9837
ARG_OF_PERICENTER = 146.4149
MEAN_ANOMALY   = 213.8976

EPHEMERIS_TYPE = 0
CLASSIFICATION_TYPE = U
NORAD_CAT_ID   = 13154
ELEMENT_SET_NO = 999
REV_AT_EPOCH   = 37325
BSTAR          = .12705E-3
MEAN_MOTION_DOT = .2094E-4
MEAN_MOTION_DDOT = 0

